NORAD_CAT_ID,OBJECT_NAME,OBJECT_TYPE,EPOCH,MEAN_MOTION,ECCENTRICITY,INCLINATION,RA_OF_ASC_NODE,ARG_OF_PERICENTER,MEAN_ANOMALY,BSTAR,MEAN_MOTION_DOT,MEAN_MOTION_DDOT,TLE_LINE0,TLE_LINE1,TLE_LINE2,SEMIMAJOR_AXIS,PERIOD,APOGEE,PERIGEE,DECAYED
51857.0,STARLINK-3571,PAYLOAD,2022-04-09 14:00:01,15.48416676,0.0001159,53.2175,322.759,70.551,269.7617,-0.01439,-0.00718225,0.0,0 STARLINK-3571,1 51857U 22022F   22099.58334491 -.00718225  00000-0 -14390-1 0  9998,2 51857  53.2175 322.7590 0001159  70.5510 269.7617 15.48416676  3709,6799.494000000002,92.998,422.147,420.571,0.0
51857.0,STARLINK-3571,PAYLOAD,2022-04-09 22:00:00,15.4791021,0.0001309,53.2175,321.1713,53.2569,345.8935,-0.014783,-0.00724366,0.0,0 STARLINK-3571,1 51857U 22022F   22099.91667824 -.00724366  00000-0 -14783-1 0  9993,2 51857  53.2175 321.1713 0001309  53.2569 345.8935 15.47910210  7118,6800.977,93.029,423.733,421.952,0.0
51857.0,STARLINK-3571,PAYLOAD,2022-04-10 14:00:01,15.46888759,0.0001324,53.2174,317.9937,67.2907,87.7032,-0.015238,-0.00720771,0.0,0 STARLINK-3571,1 51857U 22022F   22100.58334491 -.00720771  00000-0 -15238-1 0  9992,2 51857  53.2174 317.9937 0001324  67.2907  87.7032 15.46888759  3696,6803.971,93.09,426.737,424.935,0.0
51857.0,STARLINK-3571,PAYLOAD,2022-04-10 22:00:00,15.463777599999998,0.0001526,53.2173,316.4095,56.8891,155.1061,-0.015487,-0.0071977,0.0,0 STARLINK-3571,1 51857U 22022F   22100.91667824 -.00719770  00000-0 -15487-1 0  9991,2 51857  53.2173 316.4095 0001526  56.8891 155.1061 15.46377760  3691,6805.47,93.121,428.37300000000016,426.296,0.0
51857.0,STARLINK-3571,PAYLOAD,2022-04-11 04:00:01,15.45996181,0.0001264999999999,53.2172,315.2205,78.4967,85.9121,-0.015728,-0.00721216,0.0,0 STARLINK-3571,1 51857U 22022F   22101.16668981 -.00721216  00000-0 -15728-1 0  9990,2 51857  53.2172 315.2205 0001265  78.4967  85.9121 15.45996181  7317,6806.59,93.144,429.316,427.594,0.0
51857.0,STARLINK-3571,PAYLOAD,2022-04-11 14:00:01,15.45357056,0.0001203,53.2176,313.2393,74.1971,249.9646,-0.015989,-0.00717476,0.0,0 STARLINK-3571,1 51857U 22022F   22101.58334491 -.00717476  00000-0 -15989-1 0  9994,2 51857  53.2176 313.2393 0001203  74.1971 249.9646 15.45357056  3702,6808.465999999999,93.182,431.15,429.512,0.0
51857.0,STARLINK-3571,PAYLOAD,2022-04-11 22:00:00,15.44850119,0.0001259,53.2175,311.659,59.5017,319.8213,-0.016419,-0.00723567,0.0,0 STARLINK-3571,1 51857U 22022F   22101.91667824 -.00723567  00000-0 -16419-1 0  9997,2 51857  53.2175 311.6590 0001259  59.5017 319.8213 15.44850119  3682,6809.956,93.213,432.67800000000005,430.963,0.0
51857.0,STARLINK-3571,PAYLOAD,2022-04-12 04:00:00,15.44467216,0.0001117,53.2173,310.4724,81.1121,249.1818,-0.016609,-0.00722466,0.0,0 STARLINK-3571,1 51857U 22022F   22102.16667824 -.00722466  00000-0 -16609-1 0  9993,2 51857  53.2173 310.4724 0001117  81.1121 249.1818 15.44467216  7464,6811.081,93.236,433.707,432.185,0.0
51857.0,STARLINK-3571,PAYLOAD,2022-04-12 14:00:01,15.43828022,0.0001378,53.2177,308.496,60.0104,67.8028,-0.016883,-0.00718859,0.0,0 STARLINK-3571,1 51857U 22022F   22102.58334491 -.00718859  00000-0 -16883-1 0  9995,2 51857  53.2177 308.4960 0001378  60.0104  67.8028 15.43828022  3686,6812.9609999999975,93.275,435.765,433.887,0.0
51857.0,STARLINK-3571,PAYLOAD,2022-04-12 22:00:00,15.43317872,0.0001561,53.2176,306.9192,53.497,127.6404,-0.01718,-0.00718946,0.0,0 STARLINK-3571,1 51857U 22022F   22102.91667824 -.00718946  00000-0 -17180-1 0  9999,2 51857  53.2176 306.9192 0001561  53.4970 127.6404 15.43317872  3674,6814.462,93.305,437.391,435.263,0.0
51857.0,STARLINK-3571,PAYLOAD,2022-04-13 04:00:00,15.42935743,0.0001289,53.2173,305.7352,64.5973,66.1322,-0.0174199999999999,-0.00719519,0.0,0 STARLINK-3571,1 51857U 22022F   22103.16667824 -.00719519  00000-0 -17420-1 0  9991,2 51857  53.2173 305.7352 0001289  64.5973  66.1322 15.42935743  7626,6815.587,93.329,438.331,436.574,0.0
51857.0,STARLINK-3571,PAYLOAD,2022-04-13 14:00:03,15.42298442,0.0001319,53.2178,303.7634,69.2509,216.8276,-0.017781,-0.00718845,0.0,0 STARLINK-3571,1 51857U 22022F   22103.58336806 -.00718845  00000-0 -17781-1 0  9991,2 51857  53.2178 303.7634 0001319  69.2509 216.8276 15.42298442  3685,6817.465,93.367,440.229,438.43,0.0
51857.0,STARLINK-3571,PAYLOAD,2022-04-13 22:00:00,15.41789127,0.0001302,53.2176,302.1905,60.9666,276.4689,-0.018151,-0.00721148,0.0,0 STARLINK-3571,1 51857U 22022F   22103.91667824 -.00721148  00000-0 -18151-1 0  9997,2 51857  53.2176 302.1905 0001302  60.9666 276.4689 15.41789127  3685,6818.965999999999,93.398,441.719,439.943,0.0
51857.0,STARLINK-3571,PAYLOAD,2022-04-14 06:00:00,15.41278855,0.000112,53.2175,300.6152,73.8386,314.4719,-0.018451,-0.00720644,0.0,0 STARLINK-3571,1 51857U 22022F   22104.25001157 -.00720644  00000-0 -18451-1 0  9999,2 51857  53.2175 300.6152 0001120  73.8386 314.4719 15.41278855  7784,6820.471,93.429,443.1,441.572,0.0
51857.0,STARLINK-3571,PAYLOAD,2022-04-14 14:00:01,15.40767836,0.0001291999999999,53.2176,299.0422,59.6899,18.8822,-0.018701,-0.00718259,0.0,0 STARLINK-3571,1 51857U 22022F   22104.58334491 -.00718259  00000-0 -18701-1 0  9992,2 51857  53.2176 299.0422 0001292  59.6899  18.8822 15.40767836  3683,6821.979,93.46,444.725,442.963,0.0
51857.0,STARLINK-3571,PAYLOAD,2022-04-14 22:00:00,15.40257511,0.000137,53.2175,297.4727,62.2614,65.9581,-0.019018,-0.00718148,0.0,0 STARLINK-3571,1 51857U 22022F   22104.91667824 -.00718148  00000-0 -19018-1 0  9997,2 51857  53.2175 297.4727 0001370  62.2614  65.9581 15.40257511  3683,6823.486,93.491,446.285,444.416,0.0
51857.0,STARLINK-3571,PAYLOAD,2022-04-15 03:41:04,15.41217179,0.0001423,53.2166,296.3697,66.8681,293.2476,-0.005622,-0.0023048,0.0,0 STARLINK-3571,1 51857U 22022F   22105.15352446 -.00230480  00000-0 -56220-2 0  9990,2 51857  53.2166 296.3697 0001423  66.8681 293.2476 15.41217179  7927,6820.653,93.433,443.48800000000006,441.547,0.0
51857.0,STARLINK-3571,PAYLOAD,2022-04-15 14:00:01,15.39237872,0.0001395,53.2175,294.3317,71.3596,154.3191,-0.019659,-0.00717733,0.0,0 STARLINK-3571,1 51857U 22022F   22105.58334491 -.00717733  00000-0 -19659-1 0  9992,2 51857  53.2175 294.3317 0001395  71.3596 154.3191 15.39237872  7995,6826.499,93.553,449.316,447.411,0.0
51857.0,STARLINK-3571,PAYLOAD,2022-04-15 22:00:00,15.38727016,0.0001341,53.2174,292.7658,71.2879,202.2001,-0.019959,-0.00716603,0.0,0 STARLINK-3571,1 51857U 22022F   22105.91667824 -.00716603  00000-0 -19959-1 0  9996,2 51857  53.2174 292.7658 0001341  71.2879 202.2001 15.38727016  3653,6828.01,93.584,450.79,448.959,0.0
51857.0,STARLINK-3571,PAYLOAD,2022-04-16 14:00:01,15.3770934,0.0001247,53.2175,289.6322,62.5982,304.6715,-0.020745,-0.00720083,0.0,0 STARLINK-3571,1 51857U 22022F   22106.58334491 -.00720083  00000-0 -20745-1 0  9993,2 51857  53.2175 289.6322 0001247  62.5982 304.6715 15.37709340  8147,6831.022,93.646,453.739,452.035,0.0
51857.0,STARLINK-3571,PAYLOAD,2022-04-16 22:00:01,15.37196796,0.0001228,53.2174,288.0697,64.1033,349.2022,-0.020986,-0.00716644,0.0,0 STARLINK-3571,1 51857U 22022F   22106.91668981 -.00716644  00000-0 -20986-1 0  9999,2 51857  53.2174 288.0697 0001228  64.1033 349.2022 15.37196796  3672,6832.54,93.677,455.244,453.566,0.0
51857.0,STARLINK-3571,PAYLOAD,2022-04-17 14:00:01,15.36177982,0.0001452,53.2175,284.9434,58.1131,85.2338,-0.021733,-0.00717938,0.0,0 STARLINK-3571,1 51857U 22022F   22107.58334491 -.00717938  00000-0 -21733-1 0  9997,2 51857  53.2175 284.9434 0001452  58.1131  85.2338 15.36177982  3681,6835.561,93.739,458.418,456.4330000000001,0.0
51857.0,STARLINK-3571,PAYLOAD,2022-04-17 22:00:00,15.3566413,0.0001408,53.2174,283.3845,66.4238,121.0567,-0.02188,-0.00711415,0.0,0 STARLINK-3571,1 51857U 22022F   22107.91667824 -.00711415  00000-0 -21880-1 0  9990,2 51857  53.2174 283.3845 0001408  66.4238 121.0567 15.35664130  3677,6837.0859999999975,93.771,459.913,457.98800000000006,0.0
51857.0,STARLINK-3571,PAYLOAD,2022-04-18 06:00:00,15.35157805,0.0001343,53.2175,281.8233,71.4722,159.5286,-0.022433,-0.0071713,0.0,0 STARLINK-3571,1 51857U 22022F   22108.25001157 -.00717130  00000-0 -22433-1 0  9994,2 51857  53.2175 281.8233 0001343  71.4722 159.5286 15.35157805  8400,6838.589,93.801,461.372,459.535,0.0
51857.0,STARLINK-3571,PAYLOAD,2022-04-18 14:00:01,15.34648014,0.0001423,53.2176,280.2656,61.5427,212.3654,-0.022812,-0.00717404,0.0,0 STARLINK-3571,1 51857U 22022F   22108.58334491 -.00717404  00000-0 -22812-1 0  9995,2 51857  53.2176 280.2656 0001423  61.5427 212.3654 15.34648014  3671,6840.103,93.833,462.942,460.995,0.0
51857.0,STARLINK-3571,PAYLOAD,2022-04-18 22:00:00,15.34136065,0.00013,53.2175,278.7101,65.3534,250.8494,-0.023067,-0.00713908,0.0,0 STARLINK-3571,1 51857U 22022F   22108.91667824 -.00713908  00000-0 -23067-1 0  9999,2 51857  53.2175 278.7101 0001300  65.3534 250.8494 15.34136065  3679,6841.625,93.864,464.379,462.6,0.0
51857.0,STARLINK-3571,PAYLOAD,2022-04-19 06:00:00,15.33627679,0.0001205,53.2175,277.1526,63.4554,294.4302,-0.023555,-0.00717026,0.0,0 STARLINK-3571,1 51857U 22022F   22109.25001157 -.00717026  00000-0 -23555-1 0  9995,2 51857  53.2175 277.1526 0001205  63.4554 294.4302 15.33627679  8557,6843.137,93.895,465.826,464.177,0.0
51857.0,STARLINK-3571,PAYLOAD,2022-04-19 14:00:01,15.33119637,0.0001348,53.2177,275.5988,53.3318,345.622,-0.024051,-0.00720164,0.0,0 STARLINK-3571,1 51857U 22022F   22109.58334491 -.00720164  00000-0 -24051-1 0  9990,2 51857  53.2177 275.5988 0001348  53.3318 345.6220 15.33119637  3673,6844.648,93.926,467.436,465.591,0.0
51857.0,STARLINK-3571,PAYLOAD,2022-04-20 06:00:00,15.32096743,0.0001363,53.2175,272.4928,56.5189,62.7366,-0.024652,-0.00715084,0.0,0 STARLINK-3571,1 51857U 22022F   22110.25001157 -.00715084  00000-0 -24652-1 0  9998,2 51857  53.2175 272.4928 0001363  56.5189  62.7366 15.32096743  8718,6847.695,93.989,470.49300000000005,468.626,0.0
